start=new Date('2022-05-04T00:00:00.000Z').valueOf();
sats=[{"CLASSIFICATION_TYPE":"U","COUNTRY_CODE":"US","MEAN_MOTION_DDOT":"0.0000000000000","ECCENTRICITY":"0.00021670","SITE":"AFETR","EPHEMERIS_TYPE":"0","TIME_SYSTEM":"UTC","RCS_SIZE":"LARGE","ARG_OF_PERICENTER":"40.4524","REV_AT_EPOCH":"9466","APOAPSIS":"548.721","MEAN_ELEMENT_THEORY":"SGP4","CENTER_NAME":"EARTH","TLE_LINE2":"2 46157  53.0553 109.8301 0002167  40.4524 319.6626 15.06397741 94664","RA_OF_ASC_NODE":"109.8301","SEMIMAJOR_AXIS":"6925.355","MEAN_MOTION_DOT":"0.00000330","ELEMENT_SET_NO":"999","MEAN_MOTION":"15.06397741","PERIOD":"95.592","TLE_LINE1":"1 46157U 20057AS  22123.37074972  .00000330  00000-0  41044-4 0  9999","BSTAR":"0.00004104400000","OBJECT_ID":"2020-057AS","LAUNCH_DATE":"2020-08-18","PERIAPSIS":"545.720","NORAD_CAT_ID":"46157","GP_ID":"202598265","OBJECT_NAME":"STARLINK-1587","DECAY_DATE":null,"INCLINATION":"53.0553","FILE":"3427159","OBJECT_TYPE":"PAYLOAD","REF_FRAME":"TEME","MEAN_ANOMALY":"319.6626","EPOCH":"2022-05-03T08:53:52.775808"},{"ELEMENT_SET_NO":"999","MEAN_MOTION_DOT":"0.00000814","SEMIMAJOR_AXIS":"6925.374","MEAN_ELEMENT_THEORY":"SGP4","APOAPSIS":"548.454","TLE_LINE2":"2 46158  53.0546 109.8512 0001754  57.8667 302.2492 15.06391704 95924","CENTER_NAME":"EARTH","RA_OF_ASC_NODE":"109.8512","REV_AT_EPOCH":"9592","TIME_SYSTEM":"UTC","RCS_SIZE":"LARGE","ARG_OF_PERICENTER":"57.8667","ECCENTRICITY":"0.00017540","SITE":"AFETR","EPHEMERIS_TYPE":"0","CLASSIFICATION_TYPE":"U","COUNTRY_CODE":"US","MEAN_MOTION_DDOT":"0.0000000000000","MEAN_ANOMALY":"302.2492","REF_FRAME":"TEME","EPOCH":"2022-05-03T08:48:34.892064","DECAY_DATE":null,"FILE":"3427159","INCLINATION":"53.0546","OBJECT_TYPE":"PAYLOAD","LAUNCH_DATE":"2020-08-18","PERIAPSIS":"546.024","GP_ID":"202599015","NORAD_CAT_ID":"46158","OBJECT_NAME":"STARLINK-1589","BSTAR":"0.00007352800000","OBJECT_ID":"2020-057AT","TLE_LINE1":"1 46158U 20057AT  22123.36707051  .00000814  00000-0  73528-4 0  9999","MEAN_MOTION":"15.06391704","PERIOD":"95.593"},{"EPOCH":"2022-05-03T19:20:11.354208","MEAN_ANOMALY":"309.3716","REF_FRAME":"TEME","DECAY_DATE":null,"OBJECT_TYPE":"PAYLOAD","FILE":"3427573","INCLINATION":"53.0541","GP_ID":"202633188","NORAD_CAT_ID":"46159","OBJECT_NAME":"STARLINK-1595","PERIAPSIS":"545.967","LAUNCH_DATE":"2020-08-18","OBJECT_ID":"2020-057AU","BSTAR":"0.00017337000000","TLE_LINE1":"1 46159U 20057AU  22123.80568697  .00002302  00000-0  17337-3 0  9999","MEAN_MOTION":"15.06402885","PERIOD":"95.592","ELEMENT_SET_NO":"999","MEAN_MOTION_DOT":"0.00002302","SEMIMAJOR_AXIS":"6925.340","APOAPSIS":"548.442","MEAN_ELEMENT_THEORY":"SGP4","RA_OF_ASC_NODE":"147.8811","CENTER_NAME":"EARTH","TLE_LINE2":"2 46159  53.0541 147.8811 0001787  50.7432 309.3716 15.06402885 95427","REV_AT_EPOCH":"9542","RCS_SIZE":"LARGE","TIME_SYSTEM":"UTC","ARG_OF_PERICENTER":"50.7432","ECCENTRICITY":"0.00017870","SITE":"AFETR","EPHEMERIS_TYPE":"0","CLASSIFICATION_TYPE":"U","COUNTRY_CODE":"US","MEAN_MOTION_DDOT":"0.0000000000000"},{"MEAN_ELEMENT_THEORY":"SGP4","APOAPSIS":"548.775","CENTER_NAME":"EARTH","TLE_LINE2":"2 46160  53.0524 128.2096 0002298  40.3130 319.8029 15.06409812 95684","RA_OF_ASC_NODE":"128.2096","REV_AT_EPOCH":"9568","ELEMENT_SET_NO":"999","MEAN_MOTION_DOT":"0.00005036","SEMIMAJOR_AXIS":"6925.318","ECCENTRICITY":"0.00022980","SITE":"AFETR","EPHEMERIS_TYPE":"0","CLASSIFICATION_TYPE":"U","COUNTRY_CODE":"US","MEAN_MOTION_DDOT":"0.0000000000000","TIME_SYSTEM":"UTC","RCS_SIZE":"LARGE","ARG_OF_PERICENTER":"40.3130","DECAY_DATE":null,"FILE":"3427573","INCLINATION":"53.0524","OBJECT_TYPE":"PAYLOAD","PERIAPSIS":"545.592","LAUNCH_DATE":"2020-08-18","NORAD_CAT_ID":"46160","GP_ID":"202631936","OBJECT_NAME":"STARLINK-1598","EPOCH":"2022-05-03T17:31:23.725344","REF_FRAME":"TEME","MEAN_ANOMALY":"319.8029","MEAN_MOTION":"15.06409812","PERIOD":"95.592","OBJECT_ID":"2020-057AV","BSTAR":"0.00035668000000","TLE_LINE1":"1 46160U 20057AV  22123.73013571  .00005036  00000-0  35668-3 0  9993"},{"LAUNCH_DATE":"2020-08-18","PERIAPSIS":"545.985","GP_ID":"202631684","OBJECT_NAME":"STARLINK-1600","NORAD_CAT_ID":"46161","FILE":"3427573","INCLINATION":"53.0530","OBJECT_TYPE":"PAYLOAD","DECAY_DATE":null,"EPOCH":"2022-05-03T16:59:31.975008","MEAN_ANOMALY":"298.1268","REF_FRAME":"TEME","PERIOD":"95.592","MEAN_MOTION":"15.06403277","TLE_LINE1":"1 46161U 20057AW  22123.70800897  .00001566  00000-0  12400-3 0  9999","BSTAR":"0.00012400000000","OBJECT_ID":"2020-057AW","REV_AT_EPOCH":"9568","CENTER_NAME":"EARTH","TLE_LINE2":"2 46161  53.0530 128.3066 0001759  61.9899 298.1268 15.06403277 95685","RA_OF_ASC_NODE":"128.3066","APOAPSIS":"548.422","MEAN_ELEMENT_THEORY":"SGP4","SEMIMAJOR_AXIS":"6925.339","ELEMENT_SET_NO":"999","MEAN_MOTION_DOT":"0.00001566","MEAN_MOTION_DDOT":"0.0000000000000","COUNTRY_CODE":"US","CLASSIFICATION_TYPE":"U","SITE":"AFETR","EPHEMERIS_TYPE":"0","ECCENTRICITY":"0.00017590","ARG_OF_PERICENTER":"61.9899","TIME_SYSTEM":"UTC","RCS_SIZE":"LARGE"},{"RCS_SIZE":"LARGE","TIME_SYSTEM":"UTC","ARG_OF_PERICENTER":"50.0041","ECCENTRICITY":"0.00020340","EPHEMERIS_TYPE":"0","SITE":"AFETR","CLASSIFICATION_TYPE":"U","MEAN_MOTION_DDOT":"0.0000000000000","COUNTRY_CODE":"US","ELEMENT_SET_NO":"999","MEAN_MOTION_DOT":"-0.00000864","SEMIMAJOR_AXIS":"6925.400","APOAPSIS":"548.674","MEAN_ELEMENT_THEORY":"SGP4","RA_OF_ASC_NODE":"128.3057","CENTER_NAME":"EARTH","TLE_LINE2":"2 46162  53.0559 128.3057 0002034  50.0041 310.1126 15.06383155 95693","REV_AT_EPOCH":"9569","BSTAR":"-0.00003912700000","OBJECT_ID":"2020-057AX","TLE_LINE1":"1 46162U 20057AX  22123.71172380 -.00000864  00000-0 -39127-4 0  9998","MEAN_MOTION":"15.06383155","PERIOD":"95.593","MEAN_ANOMALY":"310.1126","EPOCH":"2022-05-03T17:04:52.936320","REF_FRAME":"TEME","DECAY_DATE":null,"OBJECT_TYPE":"PAYLOAD","INCLINATION":"53.0559","FILE":"3427573","OBJECT_NAME":"STARLINK-1603","GP_ID":"202632438","NORAD_CAT_ID":"46162","PERIAPSIS":"545.857","LAUNCH_DATE":"2020-08-18"},{"PERIOD":"95.592","MEAN_MOTION":"15.06396998","BSTAR":"-0.00002648300000","OBJECT_ID":"2020-057AY","TLE_LINE1":"1 46163U 20057AY  22123.37812013 -.00000676  00000-0 -26483-4 0  9997","OBJECT_TYPE":"PAYLOAD","FILE":"3427215","INCLINATION":"53.0526","DECAY_DATE":null,"GP_ID":"202603960","OBJECT_NAME":"STARLINK-1610","NORAD_CAT_ID":"46163","PERIAPSIS":"545.811","LAUNCH_DATE":"2020-08-18","REF_FRAME":"TEME","EPOCH":"2022-05-03T09:04:29.579232","MEAN_ANOMALY":"318.6826","SITE":"AFETR","EPHEMERIS_TYPE":"0","ECCENTRICITY":"0.00020390","COUNTRY_CODE":"US","MEAN_MOTION_DDOT":"0.0000000000000","CLASSIFICATION_TYPE":"U","ARG_OF_PERICENTER":"41.4317","RCS_SIZE":"LARGE","TIME_SYSTEM":"UTC","RA_OF_ASC_NODE":"109.7881","CENTER_NAME":"EARTH","TLE_LINE2":"2 46163  53.0526 109.7881 0002039  41.4317 318.6826 15.06396998 95320","APOAPSIS":"548.635","MEAN_ELEMENT_THEORY":"SGP4","REV_AT_EPOCH":"9532","ELEMENT_SET_NO":"999","MEAN_MOTION_DOT":"-0.00000676","SEMIMAJOR_AXIS":"6925.358"},{"PERIOD":"95.593","MEAN_MOTION":"15.06390531","BSTAR":"0.00014895000000","OBJECT_ID":"2020-057AZ","TLE_LINE1":"1 46164U 20057AZ  22123.37443379  .00001937  00000-0  14895-3 0  9995","FILE":"3427159","INCLINATION":"53.0537","OBJECT_TYPE":"PAYLOAD","DECAY_DATE":null,"PERIAPSIS":"545.988","LAUNCH_DATE":"2020-08-18","NORAD_CAT_ID":"46164","GP_ID":"202598014","OBJECT_NAME":"STARLINK-1612","REF_FRAME":"TEME","MEAN_ANOMALY":"303.0046","EPOCH":"2022-05-03T08:59:11.079456","SITE":"AFETR","EPHEMERIS_TYPE":"0","ECCENTRICITY":"0.00018110","MEAN_MOTION_DDOT":"0.0000000000000","COUNTRY_CODE":"US","CLASSIFICATION_TYPE":"U","ARG_OF_PERICENTER":"57.1117","TIME_SYSTEM":"UTC","RCS_SIZE":"LARGE","TLE_LINE2":"2 46164  53.0537 109.8066 0001811  57.1117 303.0046 15.06390531 95923","CENTER_NAME":"EARTH","RA_OF_ASC_NODE":"109.8066","MEAN_ELEMENT_THEORY":"SGP4","APOAPSIS":"548.497","REV_AT_EPOCH":"9592","ELEMENT_SET_NO":"999","MEAN_MOTION_DOT":"0.00001937","SEMIMAJOR_AXIS":"6925.378"},{"TLE_LINE1":"1 46165U 20057BA  22123.47436247  .00009606  00000-0  58749-3 0  9990","BSTAR":"0.00058749000000","OBJECT_ID":"2020-057BA","MEAN_MOTION":"15.10863187","PERIOD":"95.310","MEAN_ANOMALY":"315.5433","EPOCH":"2022-05-03T11:23:04.917408","REF_FRAME":"TEME","GP_ID":"202598266","OBJECT_NAME":"STARLINK-1613","NORAD_CAT_ID":"46165","LAUNCH_DATE":"2020-08-18","PERIAPSIS":"531.606","DECAY_DATE":null,"OBJECT_TYPE":"PAYLOAD","INCLINATION":"53.0518","FILE":"3427159","RCS_SIZE":"LARGE","TIME_SYSTEM":"UTC","ARG_OF_PERICENTER":"44.5786","CLASSIFICATION_TYPE":"U","MEAN_MOTION_DDOT":"0.0000000000000","COUNTRY_CODE":"US","ECCENTRICITY":"0.00028390","SITE":"AFETR","EPHEMERIS_TYPE":"0","SEMIMAJOR_AXIS":"6911.703","MEAN_MOTION_DOT":"0.00009606","ELEMENT_SET_NO":"999","REV_AT_EPOCH":"9414","APOAPSIS":"535.530","MEAN_ELEMENT_THEORY":"SGP4","RA_OF_ASC_NODE":"147.4970","TLE_LINE2":"2 46165  53.0518 147.4970 0002839  44.5786 315.5433 15.10863187 94146","CENTER_NAME":"EARTH"},{"ARG_OF_PERICENTER":"52.3541","RCS_SIZE":"LARGE","TIME_SYSTEM":"UTC","SITE":"AFETR","EPHEMERIS_TYPE":"0","ECCENTRICITY":"0.00017680","COUNTRY_CODE":"US","MEAN_MOTION_DDOT":"0.0000000000000","CLASSIFICATION_TYPE":"U","MEAN_MOTION_DOT":"0.00001945","ELEMENT_SET_NO":"999","SEMIMAJOR_AXIS":"6925.357","RA_OF_ASC_NODE":"148.0883","CENTER_NAME":"EARTH","TLE_LINE2":"2 46166  53.0545 148.0883 0001768  52.3541 307.7608 15.06397301 94167","APOAPSIS":"548.446","MEAN_ELEMENT_THEORY":"SGP4","REV_AT_EPOCH":"9416","OBJECT_ID":"2020-057BB","BSTAR":"0.00014942000000","TLE_LINE1":"1 46166U 20057BB  22123.75777721  .00001945  00000-0  14942-3 0  9992","PERIOD":"95.592","MEAN_MOTION":"15.06397301","EPOCH":"2022-05-03T18:11:11.950944","REF_FRAME":"TEME","MEAN_ANOMALY":"307.7608","OBJECT_TYPE":"PAYLOAD","FILE":"3427573","INCLINATION":"53.0545","DECAY_DATE":null,"GP_ID":"202632938","NORAD_CAT_ID":"46166","OBJECT_NAME":"STARLINK-1615","PERIAPSIS":"545.997","LAUNCH_DATE":"2020-08-18"}];
